XRISM                   
1 57800U 23137A   23304.54378761  .00005872  00000+0  47369-3 0  9992
2 57800  31.0051  31.0866 0010282  96.0875 264.0932 14.98413436  8180
